start=new Date('2021-12-17T00:00:00.000Z').valueOf();
sats=[{"INCLINATION":"53.0562","COUNTRY_CODE":"US","TLE_LINE2":"2 48384  53.0562  83.1786 0001006  90.0494 270.0611 15.06407930 35668","REF_FRAME":"TEME","CLASSIFICATION_TYPE":"U","OBJECT_ID":"2021-038AH","ELEMENT_SET_NO":"999","REV_AT_EPOCH":"3566","MEAN_ANOMALY":"270.0611","SITE":"AFETR","MEAN_MOTION":"15.06407930","DECAY_DATE":null,"MEAN_MOTION_DDOT":"0.0000000000000","OBJECT_NAME":"STARLINK-2601","BSTAR":"0.00003744900000","SEMIMAJOR_AXIS":"6925.324","RA_OF_ASC_NODE":"83.1786","NORAD_CAT_ID":"48384","MEAN_ELEMENT_THEORY":"SGP4","MEAN_MOTION_DOT":"0.00000277","OBJECT_TYPE":"PAYLOAD","PERIAPSIS":"546.493","EPOCH":"2021-12-16T15:01:09.322176","ARG_OF_PERICENTER":"90.0494","ECCENTRICITY":"0.00010060","GP_ID":"191860250","TIME_SYSTEM":"UTC","RCS_SIZE":"LARGE","APOAPSIS":"547.886","CENTER_NAME":"EARTH","PERIOD":"95.592","TLE_LINE1":"1 48384U 21038AH  21350.62580234  .00000277  00000-0  37449-4 0  9999","EPHEMERIS_TYPE":"0","FILE":"3242223","LAUNCH_DATE":"2021-05-04"},{"EPOCH":"2021-12-16T22:53:33.199008","ARG_OF_PERICENTER":"84.8914","PERIAPSIS":"546.379","ECCENTRICITY":"0.00012170","GP_ID":"191838561","CENTER_NAME":"EARTH","APOAPSIS":"548.065","RCS_SIZE":"LARGE","TIME_SYSTEM":"UTC","LAUNCH_DATE":"2021-05-04","FILE":"3242197","TLE_LINE1":"1 48385U 21038AJ  21350.95385647  .00000273  00000-0  37224-4 0  9994","EPHEMERIS_TYPE":"0","PERIOD":"95.592","CLASSIFICATION_TYPE":"U","OBJECT_ID":"2021-038AJ","TLE_LINE2":"2 48385  53.0557  81.7065 0001217  84.8914 275.2214 15.06397345 35078","REF_FRAME":"TEME","COUNTRY_CODE":"US","INCLINATION":"53.0557","MEAN_ANOMALY":"275.2214","REV_AT_EPOCH":"3507","ELEMENT_SET_NO":"999","BSTAR":"0.00003722400000","OBJECT_NAME":"STARLINK-2598","MEAN_MOTION_DDOT":"0.0000000000000","DECAY_DATE":null,"SITE":"AFETR","MEAN_MOTION":"15.06397345","OBJECT_TYPE":"PAYLOAD","MEAN_MOTION_DOT":"0.00000273","MEAN_ELEMENT_THEORY":"SGP4","NORAD_CAT_ID":"48385","RA_OF_ASC_NODE":"81.7065","SEMIMAJOR_AXIS":"6925.357"},{"DECAY_DATE":null,"SITE":"AFETR","MEAN_MOTION":"15.06395695","MEAN_MOTION_DDOT":"0.0000000000000","OBJECT_NAME":"STARLINK-2606","BSTAR":"0.00003956200000","RA_OF_ASC_NODE":"76.7807","SEMIMAJOR_AXIS":"6925.362","MEAN_MOTION_DOT":"0.00000308","MEAN_ELEMENT_THEORY":"SGP4","NORAD_CAT_ID":"48386","OBJECT_TYPE":"PAYLOAD","COUNTRY_CODE":"US","INCLINATION":"53.0573","TLE_LINE2":"2 48386  53.0573  76.7807 0001359  85.3050 274.8094 15.06395695 35144","REF_FRAME":"TEME","CLASSIFICATION_TYPE":"U","OBJECT_ID":"2021-038AK","ELEMENT_SET_NO":"999","MEAN_ANOMALY":"274.8094","REV_AT_EPOCH":"3514","TIME_SYSTEM":"UTC","CENTER_NAME":"EARTH","RCS_SIZE":"LARGE","APOAPSIS":"548.168","PERIOD":"95.592","LAUNCH_DATE":"2021-05-04","TLE_LINE1":"1 48386U 21038AK  21350.94047465  .00000308  00000-0  39562-4 0  9993","EPHEMERIS_TYPE":"0","FILE":"3242209","PERIAPSIS":"546.286","ARG_OF_PERICENTER":"85.3050","EPOCH":"2021-12-16T22:34:17.009760","ECCENTRICITY":"0.00013590","GP_ID":"191838939"},{"GP_ID":"191838878","ECCENTRICITY":"0.00011450","EPOCH":"2021-12-16T23:22:02.856288","ARG_OF_PERICENTER":"84.0946","PERIAPSIS":"546.419","TLE_LINE1":"1 48387U 21038AL  21350.97364417  .00001804  00000-0  13995-3 0  9999","FILE":"3242210","EPHEMERIS_TYPE":"0","LAUNCH_DATE":"2021-05-04","PERIOD":"95.592","RCS_SIZE":"MEDIUM","APOAPSIS":"548.005","CENTER_NAME":"EARTH","TIME_SYSTEM":"UTC","REV_AT_EPOCH":"3515","MEAN_ANOMALY":"276.0173","ELEMENT_SET_NO":"999","CLASSIFICATION_TYPE":"U","OBJECT_ID":"2021-038AL","TLE_LINE2":"2 48387  53.0573  76.6361 0001145  84.0946 276.0173 15.06400425 35153","REF_FRAME":"TEME","INCLINATION":"53.0573","COUNTRY_CODE":"US","OBJECT_TYPE":"PAYLOAD","NORAD_CAT_ID":"48387","MEAN_ELEMENT_THEORY":"SGP4","MEAN_MOTION_DOT":"0.00001804","SEMIMAJOR_AXIS":"6925.347","RA_OF_ASC_NODE":"76.6361","BSTAR":"0.00013995000000","OBJECT_NAME":"STARLINK-2600","MEAN_MOTION_DDOT":"0.0000000000000","SITE":"AFETR","MEAN_MOTION":"15.06400425","DECAY_DATE":null},{"NORAD_CAT_ID":"48388","MEAN_MOTION_DOT":"0.00000313","MEAN_ELEMENT_THEORY":"SGP4","OBJECT_TYPE":"PAYLOAD","SEMIMAJOR_AXIS":"6925.347","RA_OF_ASC_NODE":"76.6475","OBJECT_NAME":"STARLINK-2594","BSTAR":"0.00003986100000","SITE":"AFETR","MEAN_MOTION":"15.06400534","DECAY_DATE":null,"MEAN_MOTION_DDOT":"0.0000000000000","REV_AT_EPOCH":"3515","MEAN_ANOMALY":"273.3447","ELEMENT_SET_NO":"999","REF_FRAME":"TEME","TLE_LINE2":"2 48388  53.0559  76.6475 0000990  86.7655 273.3447 15.06400534 35152","OBJECT_ID":"2021-038AM","CLASSIFICATION_TYPE":"U","INCLINATION":"53.0559","COUNTRY_CODE":"US","PERIOD":"95.592","TLE_LINE1":"1 48388U 21038AM  21350.96721843  .00000313  00000-0  39861-4 0  9994","FILE":"3242212","EPHEMERIS_TYPE":"0","LAUNCH_DATE":"2021-05-04","APOAPSIS":"547.898","RCS_SIZE":"MEDIUM","CENTER_NAME":"EARTH","TIME_SYSTEM":"UTC","GP_ID":"191838904","ECCENTRICITY":"0.00009900","PERIAPSIS":"546.526","ARG_OF_PERICENTER":"86.7655","EPOCH":"2021-12-16T23:12:47.672352"},{"GP_ID":"191839021","ECCENTRICITY":"0.00008200","PERIAPSIS":"546.656","EPOCH":"2021-12-16T22:54:55.551168","ARG_OF_PERICENTER":"89.5361","PERIOD":"95.592","LAUNCH_DATE":"2021-05-04","EPHEMERIS_TYPE":"0","TLE_LINE1":"1 48389U 21038AN  21350.95480962  .00002206  00000-0  16692-3 0  9997","FILE":"3242213","CENTER_NAME":"EARTH","APOAPSIS":"547.792","RCS_SIZE":"LARGE","TIME_SYSTEM":"UTC","MEAN_ANOMALY":"270.5722","REV_AT_EPOCH":"3521","ELEMENT_SET_NO":"999","REF_FRAME":"TEME","TLE_LINE2":"2 48389  53.0566  71.7012 0000820  89.5361 270.5722 15.06396639 35213","OBJECT_ID":"2021-038AN","CLASSIFICATION_TYPE":"U","COUNTRY_CODE":"US","INCLINATION":"53.0566","MEAN_MOTION_DOT":"0.00002206","MEAN_ELEMENT_THEORY":"SGP4","NORAD_CAT_ID":"48389","OBJECT_TYPE":"PAYLOAD","RA_OF_ASC_NODE":"71.7012","SEMIMAJOR_AXIS":"6925.359","OBJECT_NAME":"STARLINK-1904","BSTAR":"0.00016692000000","DECAY_DATE":null,"MEAN_MOTION":"15.06396639","SITE":"AFETR","MEAN_MOTION_DDOT":"0.0000000000000"},{"GP_ID":"191839053","ECCENTRICITY":"0.00011660","PERIAPSIS":"546.370","ARG_OF_PERICENTER":"82.1261","EPOCH":"2021-12-17T00:25:06.098880","PERIOD":"95.591","TLE_LINE1":"1 48390U 21038AP  21351.01743170  .00004236  00000-0  30297-3 0  9992","FILE":"3242219","EPHEMERIS_TYPE":"0","LAUNCH_DATE":"2021-05-04","TIME_SYSTEM":"UTC","APOAPSIS":"547.985","RCS_SIZE":"LARGE","CENTER_NAME":"EARTH","ELEMENT_SET_NO":"999","REV_AT_EPOCH":"3522","MEAN_ANOMALY":"277.9861","INCLINATION":"53.0560","COUNTRY_CODE":"US","TLE_LINE2":"2 48390  53.0560  71.4304 0001166  82.1261 277.9861 15.06411737 35225","REF_FRAME":"TEME","CLASSIFICATION_TYPE":"U","OBJECT_ID":"2021-038AP","SEMIMAJOR_AXIS":"6925.313","RA_OF_ASC_NODE":"71.4304","NORAD_CAT_ID":"48390","MEAN_MOTION_DOT":"0.00004236","MEAN_ELEMENT_THEORY":"SGP4","OBJECT_TYPE":"PAYLOAD","SITE":"AFETR","MEAN_MOTION":"15.06411737","DECAY_DATE":null,"MEAN_MOTION_DDOT":"0.0000000000000","OBJECT_NAME":"STARLINK-2586","BSTAR":"0.00030297000000"},{"MEAN_MOTION_DDOT":"0.0000000000000","DECAY_DATE":null,"SITE":"AFETR","MEAN_MOTION":"15.06398485","BSTAR":"0.00003837900000","OBJECT_NAME":"STARLINK-2607","RA_OF_ASC_NODE":"71.7433","SEMIMAJOR_AXIS":"6925.353","OBJECT_TYPE":"PAYLOAD","MEAN_ELEMENT_THEORY":"SGP4","MEAN_MOTION_DOT":"0.00000290","NORAD_CAT_ID":"48391","COUNTRY_CODE":"US","INCLINATION":"53.0562","CLASSIFICATION_TYPE":"U","OBJECT_ID":"2021-038AQ","TLE_LINE2":"2 48391  53.0562  71.7433 0001090  86.0176 274.0938 15.06398485 35203","REF_FRAME":"TEME","ELEMENT_SET_NO":"999","MEAN_ANOMALY":"274.0938","REV_AT_EPOCH":"3520","TIME_SYSTEM":"UTC","CENTER_NAME":"EARTH","APOAPSIS":"547.973","RCS_SIZE":"LARGE","LAUNCH_DATE":"2021-05-04","TLE_LINE1":"1 48391U 21038AQ  21350.94740791  .00000290  00000-0  38379-4 0  9996","FILE":"3242221","EPHEMERIS_TYPE":"0","PERIOD":"95.592","EPOCH":"2021-12-16T22:44:16.043424","ARG_OF_PERICENTER":"86.0176","PERIAPSIS":"546.463","ECCENTRICITY":"0.00010900","GP_ID":"191839115"},{"ELEMENT_SET_NO":"999","REV_AT_EPOCH":"3521","MEAN_ANOMALY":"283.1772","INCLINATION":"53.0559","COUNTRY_CODE":"US","CLASSIFICATION_TYPE":"U","OBJECT_ID":"2021-038AR","TLE_LINE2":"2 48392  53.0559  71.7575 0001229  76.9354 283.1772 15.06405222 35213","REF_FRAME":"TEME","SEMIMAJOR_AXIS":"6925.333","RA_OF_ASC_NODE":"71.7575","OBJECT_TYPE":"PAYLOAD","NORAD_CAT_ID":"48392","MEAN_ELEMENT_THEORY":"SGP4","MEAN_MOTION_DOT":"0.00003451","MEAN_MOTION_DDOT":"0.0000000000000","MEAN_MOTION":"15.06405222","SITE":"AFETR","DECAY_DATE":null,"BSTAR":"0.00025039000000","OBJECT_NAME":"STARLINK-2605","ECCENTRICITY":"0.00012290","GP_ID":"191839124","ARG_OF_PERICENTER":"76.9354","EPOCH":"2021-12-16T22:38:57.328512","PERIAPSIS":"546.346","EPHEMERIS_TYPE":"0","TLE_LINE1":"1 48392U 21038AR  21350.94371908  .00003451  00000-0  25039-3 0  9997","FILE":"3242221","LAUNCH_DATE":"2021-05-04","PERIOD":"95.592","TIME_SYSTEM":"UTC","RCS_SIZE":"LARGE","APOAPSIS":"548.049","CENTER_NAME":"EARTH"},{"LAUNCH_DATE":"2021-05-04","TLE_LINE1":"1 48393U 21038AS  21350.94003625  .00000436  00000-0  48169-4 0  9996","EPHEMERIS_TYPE":"0","FILE":"3242227","PERIOD":"95.592","TIME_SYSTEM":"UTC","CENTER_NAME":"EARTH","APOAPSIS":"548.000","RCS_SIZE":"LARGE","GP_ID":"191863680","ECCENTRICITY":"0.00011380","ARG_OF_PERICENTER":"84.0064","EPOCH":"2021-12-16T22:33:39.132000","PERIAPSIS":"546.424","RA_OF_ASC_NODE":"71.7823","SEMIMAJOR_AXIS":"6925.347","OBJECT_TYPE":"PAYLOAD","MEAN_MOTION_DOT":"0.00000436","MEAN_ELEMENT_THEORY":"SGP4","NORAD_CAT_ID":"48393","MEAN_MOTION_DDOT":"0.0000000000000","DECAY_DATE":null,"SITE":"AFETR","MEAN_MOTION":"15.06400451","BSTAR":"0.00004816900000","OBJECT_NAME":"STARLINK-2602","ELEMENT_SET_NO":"999","MEAN_ANOMALY":"276.1055","REV_AT_EPOCH":"3521","COUNTRY_CODE":"US","INCLINATION":"53.0566","CLASSIFICATION_TYPE":"U","OBJECT_ID":"2021-038AS","REF_FRAME":"TEME","TLE_LINE2":"2 48393  53.0566  71.7823 0001138  84.0064 276.1055 15.06400451 35210"}];
